STARLINK-33663          
1 63652U 25083U   25126.95251474 -.00064729  00000+0 -24151-3 0  9998
2 63652  43.0001 304.6414 0001963 271.9944  88.0705 15.87002392  3074
STARLINK-33866          
1 63653U 25083V   25126.95178457 -.00065720  00000+0 -24365-3 0  9997
2 63653  43.0001 304.6346 0002300 263.1933  96.8678 15.87134245  3109
STARLINK-33849          
1 63654U 25083W   25127.51753956  .00134893  00000+0  62272-3 0  9999
2 63654  42.9967 301.1267 0000464 344.8906  15.1952 15.82373614  3164
STARLINK-33873          
1 63655U 25083X   25126.95218052 -.00066341  00000+0 -24734-3 0  9995
2 63655  43.0002 304.6387 0002106 272.5835  87.4798 15.87024747  3100
STARLINK-33772          
1 63656U 25083Y   25127.51753913  .00144936  00000+0  63036-3 0  9992
2 63656  42.9967 301.1265 0005281 241.3636 118.6705 15.83591555  3192
STARLINK-33789          
1 63657U 25083Z   25127.76912349  .00101186  00000+0  46656-3 0  9999
2 63657  42.9965 299.5694 0003576 139.5555 220.5583 15.82503899  3235
STARLINK-33822          
1 63658U 25083AA  25127.51666904  .00133333  00000+0  62145-3 0  9996
2 63658  42.9966 301.1190 0000889  37.2248 322.8686 15.82173541  3197
STARLINK-33771          
1 63659U 25083AB  25127.49683521  .00058507  00000+0  53156-3 0  9999
2 63659  42.9978 301.8606 0006335 227.3044 132.7289 15.67110752  3182
STARLINK-33810          
1 63660U 25083AC  25127.76866006  .00125339  00000+0  57546-3 0  9997
2 63660  42.9965 299.5663 0002880 228.2383 131.8243 15.82516744  3237
STARLINK-33823          
1 63661U 25083AD  25126.95378538 -.00057185  00000+0 -21338-3 0  9991
2 63661  42.9998 304.6508 0001968 273.8444  86.2204 15.86959458  3103
TIANLIAN 2-05           
1 63662U 25084A   25117.90091603  .00017310  21908-6  12198-2 0  9997
2 63662  27.1335  91.6460 7305058 179.5024 182.3964  2.28021945    15
STARLINK-11651 [DTC]    
1 63664U 25085A   25127.91668981 -.01033469  00000+0 -56403-2 0  9997
2 63664  43.0069 325.0884 0001889 272.5275  28.5678 15.81583289  2126
STARLINK-11672 [DTC]    
1 63665U 25085B   25127.91668981 -.01005081  00000+0 -48836-2 0  9998
2 63665  43.0069 325.0654 0001727 264.7393  45.5284 15.83950672  2710
STARLINK-11664 [DTC]    
1 63666U 25085C   25127.91668981  .00032724  00000+0  13839-3 0  9996
2 63666  43.0068 325.0585 0002261 271.1167  41.9025 15.84736881  2121
STARLINK-11666 [DTC]    
1 63667U 25085D   25128.25002315 -.00061777  00000+0 -25673-3 0  9999
2 63667  43.0068 322.9970 0002247 266.3939 153.5539 15.84782206  2068
