[{"OBJECT_NAME":"STARLINK-33663","OBJECT_ID":"2025-083U","EPOCH":"2025-05-06T22:51:37.273536","MEAN_MOTION":15.87002392,"ECCENTRICITY":0.0001963,"INCLINATION":43.0001,"RA_OF_ASC_NODE":304.6414,"ARG_OF_PERICENTER":271.9944,"MEAN_ANOMALY":88.0705,"EPHEMERIS_TYPE":0,"CLASSIFICATION_TYPE":"U","NORAD_CAT_ID":63652,"ELEMENT_SET_NO":999,"REV_AT_EPOCH":307,"BSTAR":-0.00024151,"MEAN_MOTION_DOT":-0.00064729,"MEAN_MOTION_DDOT":0},{"OBJECT_NAME":"STARLINK-33866","OBJECT_ID":"2025-083V","EPOCH":"2025-05-06T22:50:34.186848","MEAN_MOTION":15.87134245,"ECCENTRICITY":0.00023,"INCLINATION":43.0001,"RA_OF_ASC_NODE":304.6346,"ARG_OF_PERICENTER":263.1933,"MEAN_ANOMALY":96.8678,"EPHEMERIS_TYPE":0,"CLASSIFICATION_TYPE":"U","NORAD_CAT_ID":63653,"ELEMENT_SET_NO":999,"REV_AT_EPOCH":310,"BSTAR":-0.00024365,"MEAN_MOTION_DOT":-0.0006572,"MEAN_MOTION_DDOT":0},{"OBJECT_NAME":"STARLINK-33849","OBJECT_ID":"2025-083W","EPOCH":"2025-05-07T12:25:15.417984","MEAN_MOTION":15.82373614,"ECCENTRICITY":4.64e-5,"INCLINATION":42.9967,"RA_OF_ASC_NODE":301.1267,"ARG_OF_PERICENTER":344.8906,"MEAN_ANOMALY":15.1952,"EPHEMERIS_TYPE":0,"CLASSIFICATION_TYPE":"U","NORAD_CAT_ID":63654,"ELEMENT_SET_NO":999,"REV_AT_EPOCH":316,"BSTAR":0.00062272,"MEAN_MOTION_DOT":0.00134893,"MEAN_MOTION_DDOT":0},{"OBJECT_NAME":"STARLINK-33873","OBJECT_ID":"2025-083X","EPOCH":"2025-05-06T22:51:08.396928","MEAN_MOTION":15.87024747,"ECCENTRICITY":0.0002106,"INCLINATION":43.0002,"RA_OF_ASC_NODE":304.6387,"ARG_OF_PERICENTER":272.5835,"MEAN_ANOMALY":87.4798,"EPHEMERIS_TYPE":0,"CLASSIFICATION_TYPE":"U","NORAD_CAT_ID":63655,"ELEMENT_SET_NO":999,"REV_AT_EPOCH":310,"BSTAR":-0.00024734,"MEAN_MOTION_DOT":-0.00066341,"MEAN_MOTION_DDOT":0},{"OBJECT_NAME":"STARLINK-33772","OBJECT_ID":"2025-083Y","EPOCH":"2025-05-07T12:25:15.380832","MEAN_MOTION":15.83591555,"ECCENTRICITY":0.0005281,"INCLINATION":42.9967,"RA_OF_ASC_NODE":301.1265,"ARG_OF_PERICENTER":241.3636,"MEAN_ANOMALY":118.6705,"EPHEMERIS_TYPE":0,"CLASSIFICATION_TYPE":"U","NORAD_CAT_ID":63656,"ELEMENT_SET_NO":999,"REV_AT_EPOCH":319,"BSTAR":0.00063036,"MEAN_MOTION_DOT":0.00144936,"MEAN_MOTION_DDOT":0},{"OBJECT_NAME":"STARLINK-33789","OBJECT_ID":"2025-083Z","EPOCH":"2025-05-07T18:27:32.269536","MEAN_MOTION":15.82503899,"ECCENTRICITY":0.0003576,"INCLINATION":42.9965,"RA_OF_ASC_NODE":299.5694,"ARG_OF_PERICENTER":139.5555,"MEAN_ANOMALY":220.5583,"EPHEMERIS_TYPE":0,"CLASSIFICATION_TYPE":"U","NORAD_CAT_ID":63657,"ELEMENT_SET_NO":999,"REV_AT_EPOCH":323,"BSTAR":0.00046656,"MEAN_MOTION_DOT":0.00101186,"MEAN_MOTION_DDOT":0},{"OBJECT_NAME":"STARLINK-33822","OBJECT_ID":"2025-083AA","EPOCH":"2025-05-07T12:24:00.205056","MEAN_MOTION":15.82173541,"ECCENTRICITY":8.89e-5,"INCLINATION":42.9966,"RA_OF_ASC_NODE":301.119,"ARG_OF_PERICENTER":37.2248,"MEAN_ANOMALY":322.8686,"EPHEMERIS_TYPE":0,"CLASSIFICATION_TYPE":"U","NORAD_CAT_ID":63658,"ELEMENT_SET_NO":999,"REV_AT_EPOCH":319,"BSTAR":0.00062145,"MEAN_MOTION_DOT":0.00133333,"MEAN_MOTION_DDOT":0},{"OBJECT_NAME":"STARLINK-33771","OBJECT_ID":"2025-083AB","EPOCH":"2025-05-07T11:55:26.562144","MEAN_MOTION":15.67110752,"ECCENTRICITY":0.0006335,"INCLINATION":42.9978,"RA_OF_ASC_NODE":301.8606,"ARG_OF_PERICENTER":227.3044,"MEAN_ANOMALY":132.7289,"EPHEMERIS_TYPE":0,"CLASSIFICATION_TYPE":"U","NORAD_CAT_ID":63659,"ELEMENT_SET_NO":999,"REV_AT_EPOCH":318,"BSTAR":0.00053156,"MEAN_MOTION_DOT":0.00058507,"MEAN_MOTION_DDOT":0},{"OBJECT_NAME":"STARLINK-33810","OBJECT_ID":"2025-083AC","EPOCH":"2025-05-07T18:26:52.229184","MEAN_MOTION":15.82516744,"ECCENTRICITY":0.000288,"INCLINATION":42.9965,"RA_OF_ASC_NODE":299.5663,"ARG_OF_PERICENTER":228.2383,"MEAN_ANOMALY":131.8243,"EPHEMERIS_TYPE":0,"CLASSIFICATION_TYPE":"U","NORAD_CAT_ID":63660,"ELEMENT_SET_NO":999,"REV_AT_EPOCH":323,"BSTAR":0.00057546,"MEAN_MOTION_DOT":0.00125339,"MEAN_MOTION_DDOT":0},{"OBJECT_NAME":"STARLINK-33823","OBJECT_ID":"2025-083AD","EPOCH":"2025-05-06T22:53:27.056832","MEAN_MOTION":15.86959458,"ECCENTRICITY":0.0001968,"INCLINATION":42.9998,"RA_OF_ASC_NODE":304.6508,"ARG_OF_PERICENTER":273.8444,"MEAN_ANOMALY":86.2204,"EPHEMERIS_TYPE":0,"CLASSIFICATION_TYPE":"U","NORAD_CAT_ID":63661,"ELEMENT_SET_NO":999,"REV_AT_EPOCH":310,"BSTAR":-0.00021338,"MEAN_MOTION_DOT":-0.00057185,"MEAN_MOTION_DDOT":0},{"OBJECT_NAME":"TIANLIAN 2-05","OBJECT_ID":"2025-084A","EPOCH":"2025-04-27T21:37:19.144992","MEAN_MOTION":2.28021945,"ECCENTRICITY":0.7305058,"INCLINATION":27.1335,"RA_OF_ASC_NODE":91.646,"ARG_OF_PERICENTER":179.5024,"MEAN_ANOMALY":182.3964,"EPHEMERIS_TYPE":0,"CLASSIFICATION_TYPE":"U","NORAD_CAT_ID":63662,"ELEMENT_SET_NO":999,"REV_AT_EPOCH":1,"BSTAR":0.0012198,"MEAN_MOTION_DOT":0.0001731,"MEAN_MOTION_DDOT":2.1908e-7},{"OBJECT_NAME":"STARLINK-11651 [DTC]","OBJECT_ID":"2025-085A","EPOCH":"2025-05-07T22:00:01.999584","MEAN_MOTION":15.81583289,"ECCENTRICITY":0.0001889,"INCLINATION":43.0069,"RA_OF_ASC_NODE":325.0884,"ARG_OF_PERICENTER":272.5275,"MEAN_ANOMALY":28.5678,"EPHEMERIS_TYPE":0,"CLASSIFICATION_TYPE":"U","NORAD_CAT_ID":63664,"ELEMENT_SET_NO":999,"REV_AT_EPOCH":212,"BSTAR":-0.0056403,"MEAN_MOTION_DOT":-0.01033469,"MEAN_MOTION_DDOT":0},{"OBJECT_NAME":"STARLINK-11672 [DTC]","OBJECT_ID":"2025-085B","EPOCH":"2025-05-07T22:00:01.999584","MEAN_MOTION":15.83950672,"ECCENTRICITY":0.0001727,"INCLINATION":43.0069,"RA_OF_ASC_NODE":325.0654,"ARG_OF_PERICENTER":264.7393,"MEAN_ANOMALY":45.5284,"EPHEMERIS_TYPE":0,"CLASSIFICATION_TYPE":"U","NORAD_CAT_ID":63665,"ELEMENT_SET_NO":999,"REV_AT_EPOCH":271,"BSTAR":-0.0048836,"MEAN_MOTION_DOT":-0.01005081,"MEAN_MOTION_DDOT":0},{"OBJECT_NAME":"STARLINK-11664 [DTC]","OBJECT_ID":"2025-085C","EPOCH":"2025-05-07T22:00:01.999584","MEAN_MOTION":15.84736881,"ECCENTRICITY":0.0002261,"INCLINATION":43.0068,"RA_OF_ASC_NODE":325.0585,"ARG_OF_PERICENTER":271.1167,"MEAN_ANOMALY":41.9025,"EPHEMERIS_TYPE":0,"CLASSIFICATION_TYPE":"U","NORAD_CAT_ID":63666,"ELEMENT_SET_NO":999,"REV_AT_EPOCH":212,"BSTAR":0.00013839,"MEAN_MOTION_DOT":0.00032724,"MEAN_MOTION_DDOT":0},{"OBJECT_NAME":"STARLINK-11666 [DTC]","OBJECT_ID":"2025-085D","EPOCH":"2025-05-08T06:00:02.000160","MEAN_MOTION":15.84782206,"ECCENTRICITY":0.0002247,"INCLINATION":43.0068,"RA_OF_ASC_NODE":322.997,"ARG_OF_PERICENTER":266.3939,"MEAN_ANOMALY":153.5539,"EPHEMERIS_TYPE":0,"CLASSIFICATION_TYPE":"U","NORAD_CAT_ID":63667,"ELEMENT_SET_NO":999,"REV_AT_EPOCH":206,"BSTAR":-0.00025673,"MEAN_MOTION_DOT":-0.00061777,"MEAN_MOTION_DDOT":0}]
